[
    {
        "Altitude(m)": 607897.6056177658,
        "Argument of Periapsis(deg)": 0.0,
        "Eccentricity": 0.0,
        "Inclination(deg)": 60.0,
        "Latitude(deg)": -14.29288367770606,
        "Longitude(deg)": 86.6187621875766,
        "Mean Anomaly(deg)": -16.363600000000012,
        "RAAN(deg)": 195.00000000000003,
        "Satellite Name": "Test1 879",
        "Satellite Number": 879,
        "Semi-Major Axis(m)": 6980739.136638005,
        "Time(s)": 0
    },
    {
        "Altitude(m)": 607750.8071897846,
        "Argument of Periapsis(deg)": 0.00010418945913296404,
        "Eccentricity": 0.0,
        "Inclination(deg)": 60.0,
        "Latitude(deg)": -13.758724935049367,
        "Longitude(deg)": 86.90583077737834,
        "Mean Anomaly(deg)": -15.743493854538157,
        "RAAN(deg)": 194.99957995086024,
        "Satellite Name": "Test1 879",
        "Satellite Number": 879,
        "Semi-Major Axis(m)": 6980739.136638005,
        "Time(s)": 10
    },
    {
        "Altitude(m)": 607606.5330513865,
        "Argument of Periapsis(deg)": 0.0002083789182659281,
        "Eccentricity": 0.0,
        "Inclination(deg)": 60.0,
        "Latitude(deg)": -13.22409144737782,
        "Longitude(deg)": 87.1914229734307,
        "Mean Anomaly(deg)": -15.123387709076432,
        "RAAN(deg)": 194.99915990172053,
        "Satellite Name": "Test1 879",
        "Satellite Number": 879,
        "Semi-Major Axis(m)": 6980739.136638005,
        "Time(s)": 20
    },
    {
        "Altitude(m)": 607464.8275745736,
        "Argument of Periapsis(deg)": 0.00031256837739889213,
        "Eccentricity": 0.0,
        "Inclination(deg)": 60.0,
        "Latitude(deg)": -12.689003519158133,
        "Longitude(deg)": 87.4756034549763,
        "Mean Anomaly(deg)": -14.503281563614578,
        "RAAN(deg)": 194.99873985258077,
        "Satellite Name": "Test1 879",
        "Satellite Number": 879,
        "Semi-Major Axis(m)": 6980739.136638005,
        "Time(s)": 30
    },
    {
        "Altitude(m)": 607325.7338542633,
        "Argument of Periapsis(deg)": 0.0004167578365318562,
        "Eccentricity": 0.0,
        "Inclination(deg)": 60.0,
        "Latitude(deg)": -12.15348118231284,
        "Longitude(deg)": 87.75843655860939,
        "Mean Anomaly(deg)": -13.883175418152751,
        "RAAN(deg)": 194.99831980344103,
        "Satellite Name": "Test1 879",
        "Satellite Number": 879,
        "Semi-Major Axis(m)": 6980739.136638005,
        "Time(s)": 40
    },
    {
        "Altitude(m)": 607189.293689956,
        "Argument of Periapsis(deg)": 0.0005209472956648203,
        "Eccentricity": 0.0,
        "Inclination(deg)": 60.0,
        "Latitude(deg)": -11.617544210161508,
        "Longitude(deg)": 88.03998530981002,
        "Mean Anomaly(deg)": -13.263069272690899,
        "RAAN(deg)": 194.99789975430127,
        "Satellite Name": "Test1 879",
        "Satellite Number": 879,
        "Semi-Major Axis(m)": 6980739.136638005,
        "Time(s)": 50
    },
    {
        "Altitude(m)": 607055.5475680728,
        "Argument of Periapsis(deg)": 0.0006251367547977843,
        "Eccentricity": 0.0,
        "Inclination(deg)": 60.0,
        "Latitude(deg)": -11.081212131006728,
        "Longitude(deg)": 88.32031196667427,
        "Mean Anomaly(deg)": -12.642963127229072,
        "RAAN(deg)": 194.99747970516157,
        "Satellite Name": "Test1 879",
        "Satellite Number": 879,
        "Semi-Major Axis(m)": 6980739.136638005,
        "Time(s)": 60
    },
    {
        "Altitude(m)": 606924.5346448539,
        "Argument of Periapsis(deg)": 0.0007293262139307483,
        "Eccentricity": 0.0,
        "Inclination(deg)": 60.0,
        "Latitude(deg)": -10.544504241383365,
        "Longitude(deg)": 88.59947856299718,
        "Mean Anomaly(deg)": -12.02285698176722,
        "RAAN(deg)": 194.9970596560218,
        "Satellite Name": "Test1 879",
        "Satellite Number": 879,
        "Semi-Major Axis(m)": 6980739.136638005,
        "Time(s)": 70
    },
    {
        "Altitude(m)": 606796.292730014,
        "Argument of Periapsis(deg)": 0.0008335156730637124,
        "Eccentricity": 0.0,
        "Inclination(deg)": 60.0,
        "Latitude(deg)": -10.007439618990297,
        "Longitude(deg)": 88.87754593786445,
        "Mean Anomaly(deg)": -11.402750836305392,
        "RAAN(deg)": 194.99663960688207,
        "Satellite Name": "Test1 879",
        "Satellite Number": 879,
        "Semi-Major Axis(m)": 6980739.136638005,
        "Time(s)": 80
    },
    {
        "Altitude(m)": 606670.8582709369,
        "Argument of Periapsis(deg)": 0.0009377051321966765,
        "Eccentricity": 0.0,
        "Inclination(deg)": 60.0,
        "Latitude(deg)": -9.470037135321322,
        "Longitude(deg)": 89.15457427752668,
        "Mean Anomaly(deg)": -10.782644690843538,
        "RAAN(deg)": 194.9962195577423,
        "Satellite Name": "Test1 879",
        "Satellite Number": 879,
        "Semi-Major Axis(m)": 6980739.136638005,
        "Time(s)": 90
    },
    {
        "Altitude(m)": 606548.2663376157,
        "Argument of Periapsis(deg)": 0.0010418945913296407,
        "Eccentricity": 0.0,
        "Inclination(deg)": 60.0,
        "Latitude(deg)": -8.932315468013627,
        "Longitude(deg)": 89.4306236567142,
        "Mean Anomaly(deg)": -10.16253854538171,
        "RAAN(deg)": 194.9957995086026,
        "Satellite Name": "Test1 879",
        "Satellite Number": 879,
        "Semi-Major Axis(m)": 6980739.136638005,
        "Time(s)": 100
    },
    {
        "Altitude(m)": 606428.5506082327,
        "Argument of Periapsis(deg)": 0.0011460840504626045,
        "Eccentricity": 0.0,
        "Inclination(deg)": 60.0,
        "Latitude(deg)": -8.394293112930624,
        "Longitude(deg)": 89.70575306654678,
        "Mean Anomaly(deg)": -9.542432399919857,
        "RAAN(deg)": 194.99537945946284,
        "Satellite Name": "Test1 879",
        "Satellite Number": 879,
        "Semi-Major Axis(m)": 6980739.136638005,
        "Time(s)": 110
    },
    {
        "Altitude(m)": 606311.7433554219,
        "Argument of Periapsis(deg)": 0.0012502735095955685,
        "Eccentricity": 0.0,
        "Inclination(deg)": 60.0,
        "Latitude(deg)": -7.8559883959957135,
        "Longitude(deg)": 89.98002095481529,
        "Mean Anomaly(deg)": -8.922326254458028,
        "RAAN(deg)": 194.9949594103231,
        "Satellite Name": "Test1 879",
        "Satellite Number": 879,
        "Semi-Major Axis(m)": 6980739.136638005,
        "Time(s)": 120
    },
    {
        "Altitude(m)": 606197.8754332248,
        "Argument of Periapsis(deg)": 0.0013544629687285324,
        "Eccentricity": 0.0,
        "Inclination(deg)": 60.0,
        "Latitude(deg)": -7.317419484792998,
        "Longitude(deg)": 90.25348576579007,
        "Mean Anomaly(deg)": -8.302220108996279,
        "RAAN(deg)": 194.99453936118334,
        "Satellite Name": "Test1 879",
        "Satellite Number": 879,
        "Semi-Major Axis(m)": 6980739.136638005,
        "Time(s)": 130
    },
    {
        "Altitude(m)": 606086.9762647256,
        "Argument of Periapsis(deg)": 0.0014586524278614966,
        "Eccentricity": 0.0,
        "Inclination(deg)": 60.0,
        "Latitude(deg)": -6.778604399951371,
        "Longitude(deg)": 90.5262049667142,
        "Mean Anomaly(deg)": -7.6821139635343485,
        "RAAN(deg)": 194.99411931204364,
        "Satellite Name": "Test1 879",
        "Satellite Number": 879,
        "Semi-Major Axis(m)": 6980739.136638005,
        "Time(s)": 140
    },
    {
        "Altitude(m)": 605979.0738304206,
        "Argument of Periapsis(deg)": 0.0015628418869944607,
        "Eccentricity": 0.0,
        "Inclination(deg)": 60.0,
        "Latitude(deg)": -6.239561026327906,
        "Longitude(deg)": 90.79823558675459,
        "Mean Anomaly(deg)": -7.062007818072598,
        "RAAN(deg)": 194.99369926290387,
        "Satellite Name": "Test1 879",
        "Satellite Number": 879,
        "Semi-Major Axis(m)": 6980739.136638005,
        "Time(s)": 150
    },
    {
        "Altitude(m)": 605874.1946572597,
        "Argument of Periapsis(deg)": 0.0016670313461274247,
        "Eccentricity": 0.0,
        "Inclination(deg)": 60.0,
        "Latitude(deg)": -5.700307124003572,
        "Longitude(deg)": 91.06963475557026,
        "Mean Anomaly(deg)": -6.441901672610769,
        "RAAN(deg)": 194.99327921376414,
        "Satellite Name": "Test1 879",
        "Satellite Number": 879,
        "Semi-Major Axis(m)": 6980739.136638005,
        "Time(s)": 160
    },
    {
        "Altitude(m)": 605772.3638084113,
        "Argument of Periapsis(deg)": 0.0017712208052603888,
        "Eccentricity": 0.0,
        "Inclination(deg)": 60.0,
        "Latitude(deg)": -5.160860339109953,
        "Longitude(deg)": 91.34045872865069,
        "Mean Anomaly(deg)": -5.821795527148917,
        "RAAN(deg)": 194.99285916462438,
        "Satellite Name": "Test1 879",
        "Satellite Number": 879,
        "Semi-Major Axis(m)": 6980739.136638005,
        "Time(s)": 170
    },
    {
        "Altitude(m)": 605673.604873766,
        "Argument of Periapsis(deg)": 0.001875410264393353,
        "Eccentricity": 0.0,
        "Inclination(deg)": 60.0,
        "Latitude(deg)": -4.621238214498426,
        "Longitude(deg)": 91.6107634252022,
        "Mean Anomaly(deg)": -5.201689381687089,
        "RAAN(deg)": 194.99243911548467,
        "Satellite Name": "Test1 879",
        "Satellite Number": 879,
        "Semi-Major Axis(m)": 6980739.136638005,
        "Time(s)": 180
    },
    {
        "Altitude(m)": 605577.9399611367,
        "Argument of Periapsis(deg)": 0.0019795997235263173,
        "Eccentricity": 0.0,
        "Inclination(deg)": 60.0,
        "Latitude(deg)": -4.081458200267767,
        "Longitude(deg)": 91.88060496573729,
        "Mean Anomaly(deg)": -4.581583236225338,
        "RAAN(deg)": 194.9920190663449,
        "Satellite Name": "Test1 879",
        "Satellite Number": 879,
        "Semi-Major Axis(m)": 6980739.136638005,
        "Time(s)": 190
    }
]